{
  "type": "FeatureCollection",
  "name": "raisg_resguardos_colombia_sample",
  "comment": "Sample subset of RAISG resguardos covering the Freddy Hg pilot ROIs. Replace with full dataset from raisg.socioambiental.org before production launch. Polygons are simplified bounding approximations; not legal-grade cadastral boundaries.",
  "crs": { "type": "name", "properties": { "name": "EPSG:4326" } },
  "features": [
    {
      "type": "Feature",
      "properties": {
        "nombre": "Resguardo Aduche",
        "pueblo": "Uitoto / Muinane",
        "departamento": "Caqueta",
        "fuente": "RAISG sample subset"
      },
      "geometry": {
        "type": "Polygon",
        "coordinates": [[
          [-72.30, -0.55],
          [-72.05, -0.55],
          [-72.05, -0.30],
          [-72.30, -0.30],
          [-72.30, -0.55]
        ]]
      }
    },
    {
      "type": "Feature",
      "properties": {
        "nombre": "Resguardo Mirití-Paraná",
        "pueblo": "Yucuna / Matapí / Tanimuca",
        "departamento": "Amazonas",
        "fuente": "RAISG sample subset"
      },
      "geometry": {
        "type": "Polygon",
        "coordinates": [[
          [-72.95, -1.10],
          [-72.30, -1.10],
          [-72.30, -0.60],
          [-72.95, -0.60],
          [-72.95, -1.10]
        ]]
      }
    },
    {
      "type": "Feature",
      "properties": {
        "nombre": "Predio Putumayo",
        "pueblo": "Uitoto / Bora / Ocaina",
        "departamento": "Amazonas",
        "fuente": "RAISG sample subset"
      },
      "geometry": {
        "type": "Polygon",
        "coordinates": [[
          [-73.10, -1.45],
          [-71.80, -1.45],
          [-71.80, -0.95],
          [-73.10, -0.95],
          [-73.10, -1.45]
        ]]
      }
    },
    {
      "type": "Feature",
      "properties": {
        "nombre": "Resguardo Vaupés",
        "pueblo": "Cubeo / Desano / Tukano",
        "departamento": "Vaupés",
        "fuente": "RAISG sample subset"
      },
      "geometry": {
        "type": "Polygon",
        "coordinates": [[
          [-71.50, -1.00],
          [-70.30, -1.00],
          [-70.30, 0.50],
          [-71.50, 0.50],
          [-71.50, -1.00]
        ]]
      }
    },
    {
      "type": "Feature",
      "properties": {
        "nombre": "Resguardo Nukak-Makú",
        "pueblo": "Nukak",
        "departamento": "Guaviare / Guainía",
        "fuente": "RAISG sample subset"
      },
      "geometry": {
        "type": "Polygon",
        "coordinates": [[
          [-71.20, 1.20],
          [-69.30, 1.20],
          [-69.30, 2.70],
          [-71.20, 2.70],
          [-71.20, 1.20]
        ]]
      }
    },
    {
      "type": "Feature",
      "properties": {
        "nombre": "Resguardo Tonina-Sejal",
        "pueblo": "Puinave / Curripaco",
        "departamento": "Guainía",
        "fuente": "RAISG sample subset"
      },
      "geometry": {
        "type": "Polygon",
        "coordinates": [[
          [-68.40, 3.20],
          [-67.70, 3.20],
          [-67.70, 3.90],
          [-68.40, 3.90],
          [-68.40, 3.20]
        ]]
      }
    },
    {
      "type": "Feature",
      "properties": {
        "nombre": "Resguardo Cuenca Media y Alta del Río Inírida",
        "pueblo": "Curripaco / Puinave / Piapoco",
        "departamento": "Guainía",
        "fuente": "RAISG sample subset"
      },
      "geometry": {
        "type": "Polygon",
        "coordinates": [[
          [-68.30, 3.50],
          [-67.50, 3.50],
          [-67.50, 4.40],
          [-68.30, 4.40],
          [-68.30, 3.50]
        ]]
      }
    }
  ]
}
